H1 CPF  1  HTS 2022 11  6 12  8101 larets           NONE
H2  0304206 5557    27944 2022 11 06  0  0  0 2022 11 11  0  0  0   180 1 1  0 0 0
H5  0.0560 
H9 
10 0 59893  69480.00000  0    1950579.282   -5608811.565    3802398.767
10 0 59893  69660.00000  0    1851558.634   -6282112.788    2615851.882
10 0 59893  69840.00000  0    1670246.474   -6722118.922    1332997.363
10 0 59893  70020.00000  0    1419622.536   -6910718.678       1053.500
10 0 59893  70200.00000  0    1115579.756   -6839494.373   -1330935.531
10 0 59893  70380.00000  0     776065.132   -6510100.094   -2613984.906
10 0 59893  70560.00000  0     420135.972   -5934195.802   -3801036.967
10 0 59893  70740.00000  0      66988.837   -5132962.427   -4848726.789
10 0 59893  70920.00000  0    -264992.718   -4136228.941   -5718969.949
10 0 59893  71100.00000  0    -559121.546   -2981270.113   -6380311.475
10 0 59893  71280.00000  0    -801179.925   -1711340.827   -6808999.255
10 0 59893  71460.00000  0    -980052.502    -374017.904   -6989760.616
10 0 59893  71640.00000  0   -1088198.010     980584.523   -6916278.200
10 0 59893  71820.00000  0   -1121945.936    2301665.961   -6591365.531
10 0 59893  72000.00000  0   -1081612.442    3539603.672   -6026851.430
10 0 59893  72180.00000  0    -971433.633    4647784.999   -5243178.134
10 0 59893  72360.00000  0    -799318.337    5584353.276   -4268711.750
10 0 59893  72540.00000  0    -576429.961    6313808.045   -3138772.405
10 0 59893  72720.00000  0    -316610.676    6808392.299   -1894401.878
10 0 59893  72900.00000  0     -35670.788    7049205.714    -580902.580
10 0 59893  73080.00000  0     249425.529    7026984.641     753807.891
10 0 59893  73260.00000  0     521440.083    6742501.261    2060965.249
10 0 59893  73440.00000  0     763756.425    6206549.701    3292773.654
10 0 59893  73620.00000  0     961243.539    5439523.112    4404180.088
10 0 59893  73800.00000  0    1101051.180    4470609.587    5354542.311
10 0 59893  73980.00000  0    1173289.590    3336630.980    6109117.931
10 0 59893  74160.00000  0    1171566.845    2080603.753    6640308.718
10 0 59893  74340.00000  0    1093357.614     750084.079    6928644.170
10 0 59893  74520.00000  0     940189.625    -604641.684    6963471.460
10 0 59893  74700.00000  0     717640.212   -1932451.546    6743344.229
10 0 59893  74880.00000  0     435139.442   -3183317.124    6276101.825
10 0 59893  75060.00000  0     105584.143   -4310203.240    5578623.591
10 0 59893  75240.00000  0    -255221.264   -5270863.215    4676260.740
10 0 59893  75420.00000  0    -629277.988   -6029477.255    3601967.427
10 0 59893  75600.00000  0    -997240.765   -6558070.911    2395125.947
10 0 59893  75780.00000  0   -1339358.624   -6837628.289    1100098.625
10 0 59893  75960.00000  0   -1636462.796   -6858845.927    -235438.329
10 0 59893  76140.00000  0   -1870948.569   -6622472.901   -1562316.660
10 0 59893  76320.00000  0   -2027691.938   -6139216.122   -2831758.697
10 0 59893  76500.00000  0   -2094856.894   -5429222.758   -3997233.030
10 0 59893  76680.00000  0   -2064549.634   -4521167.863   -5016197.090
10 0 59893  76860.00000  0   -1933286.420   -3451009.096   -5851645.006
10 0 59893  77040.00000  0   -1702259.081   -2260487.503   -6473410.305
10 0 59893  77220.00000  0   -1377389.980    -995446.338   -6859189.973
10 0 59893  77400.00000  0    -969180.270     295954.922   -6995266.276
10 0 59893  77580.00000  0    -492362.110    1565059.901   -6876927.195
10 0 59893  77760.00000  0      34633.657    2764511.967   -6508591.869
10 0 59893  77940.00000  0     590376.238    3849983.207   -5903647.327
10 0 59893  78120.00000  0    1151285.010    4781790.997   -5083994.203
10 0 59893  78300.00000  0    1692600.345    5526348.634   -4079306.210
10 0 59893  78480.00000  0    2189443.919    6057404.007   -2926012.880
10 0 59893  78660.00000  0    2617926.054    6357010.912   -1666024.889
10 0 59893  78840.00000  0    2956252.353    6416188.912    -345234.996
10 0 59893  79020.00000  0    3185773.427    6235227.056     988158.242
10 0 59893  79200.00000  0    3291922.113    5823609.221    2285430.633
10 0 59893  79380.00000  0    3264990.544    5199566.807    3499141.731
10 0 59893  79560.00000  0    3100707.151    4389275.969    4584898.493
10 0 59893  79740.00000  0    2800581.442    3425739.461    5502997.818
10 0 59893  79920.00000  0    2371992.906    2347408.636    6219874.023
10 0 59893  80100.00000  0    1828037.078    1196624.977    6709301.150
10 0 59893  80280.00000  0    1187129.738      17943.300    6953326.180
10 0 59893  80460.00000  0     472383.306   -1143592.451    6942905.390
10 0 59893  80640.00000  0    -289222.372   -2244167.466    6678241.269
10 0 59893  80820.00000  0   -1067853.955   -3242854.846    6168800.261
10 0 59893  81000.00000  0   -1831984.571   -4103152.676    5433006.598
10 0 59893  81180.00000  0   -2549663.972   -4794350.265    4497628.904
10 0 59893  81360.00000  0   -3189867.774   -5292683.245    3396856.778
10 0 59893  81540.00000  0   -3723858.715   -5582215.656    2171069.279
10 0 59893  81720.00000  0   -4126487.925   -5655398.575     865341.723
10 0 59893  81900.00000  0   -4377376.151   -5513277.288    -472252.188
10 0 59893  82080.00000  0   -4461910.039   -5165329.314   -1792474.768
10 0 59893  82260.00000  0   -4371994.396   -4628935.591   -3046812.202
10 0 59893  82440.00000  0   -4106516.884   -3928512.814   -4189318.319
10 0 59893  82620.00000  0   -3671506.364   -3094366.653   -5178324.729
10 0 59893  82800.00000  0   -3079987.473   -2161335.126   -5977949.633
10 0 59893  82980.00000  0   -2351547.630   -1167294.818   -6559353.456
10 0 59893  83160.00000  0   -1511643.100    -151602.378   -6901710.104
10 0 59893  83340.00000  0    -590679.319     846460.324   -6992872.772
10 0 59893  83520.00000  0     377091.762    1789178.684   -6829741.344
10 0 59893  83700.00000  0    1354826.360    2641796.436   -6418339.341
10 0 59893  83880.00000  0    2304466.215    3373771.199   -5773600.903
10 0 59893  84060.00000  0    3188195.323    3959856.356   -4918862.180
10 0 59893  84240.00000  0    3969928.088    4380975.949   -3885071.517
10 0 59893  84420.00000  0    4616781.613    4624866.071   -2709726.760
10 0 59893  84600.00000  0    5100469.812    4686448.501   -1435556.463
10 0 59893  84780.00000  0    5398552.303    4567914.953    -108985.564
10 0 59893  84960.00000  0    5495472.292    4278512.913    1221562.247
10 0 59893  85140.00000  0    5383329.439    3834041.421    2507453.784
99
